C/2015 ER61 (PANSTARRS),e,6.3367,235.1469,68.3260,499.1814,0.0000884,0.99790973,0.0000,05/10.4882/2017,2000,g 11.0,2.0
# From MPEC 2018-BF5
C/2015 E61-B (PANSTARRS),e,6.3383,235.1820,68.4152,1436,0.0000181,0.99927216,0.0000,05/10.4659/2017,2000,g 13.5,2.0
# From MPEC 2021-DA4
P/2015 F1 (PANSTARRS),e,2.8027,40.3917,187.4800,3.522433,0.1490870,0.27796340,324.3112,03/02.0/2021,2000,g 12.5,4.0
# From MPC117068
C/2015 H2 (PANSTARRS),h,09/14.2206/2016,33.6524,350.6763,288.1091,1.005667,4.979103,2000,7.5,4.0
# From MPC100280
P/2015 HG16 (PANSTARRS),e,18.7930,58.7692,47.4417,4.748423,0.0952533,0.35146836,232.8421,03/02.0/2021,2000,g 12.5,4.0
# From MPC 95213
P/2015 K5 (PANSTARRS),e,39.9448,134.1749,106.3423,6.721091,0.0565646,0.55339907,118.5950,03/02.0/2021,2000,g 13.5,4.0
# From MPC107684
P/2015 M2 (PANSTARRS),e,3.9726,86.5837,225.4816,7.229629,0.0507026,0.18103256,101.4109,03/02.0/2021,2000,g  8.5,4.0
# From MPC112390
C/2015 O1 (PANSTARRS),h,02/19.6601/2018,127.2251,299.8515,89.6286,1.001160,3.729003,2000,6.5,4.0
# From MPC 99819
P/2015 P4 (PANSTARRS),e,8.7176,104.7584,280.5685,6.049311,0.0662438,0.58471991,123.7427,03/02.0/2021,2000,g 14.0,4.0
# From MPC102952
P/2015 PD229 (Cameron-ISON),e,2.0263,342.6323,352.4562,7.182709,0.0512002,0.32817756,103.6826,03/02.0/2021,2000,g 11.5,2.0
# From MPC 99819
P/2015 Q1 (Scotti),e,22.3828,202.9025,199.8364,3.474275,0.1521976,0.47823852,306.9427,03/02.0/2021,2000,g 14.0,4.0
# From MPC 96867
P/2015 Q2 (Pimentel),e,146.4973,228.4232,244.4938,7.348168,0.0494807,0.75079491,99.1686,03/02.0/2021,2000,g 15.5,4.0
# From MPC 98562
P/2015 R1 (PANSTARRS),e,22.6797,48.4248,300.4339,5.880331,0.0691196,0.63414906,143.3386,03/02.0/2021,2000,g 14.0,4.0
# From MPC 95734
P/2015 R2 (PANSTARRS),e,15.4805,168.5992,149.7618,4.488239,0.1036550,0.45287778,216.5790,03/02.0/2021,2000,g 14.5,4.0
# From MPC117068
C/2015 T2 (PANSTARRS),e,124.5522,51.0236,30.6547,1926,0.0000117,0.99639891,0.0000,05/18.3596/2017,2000,g  8.0,4.0
# From MPC 96280
P/2015 T3 (PANSTARRS),e,13.0937,120.5019,178.6330,4.326181,0.1095335,0.50818108,359.9227,12/21.0/2014,2000,g 14.0,4.0
# From MPC102953
C/2015 T4 (PANSTARRS),e,88.0008,251.8329,270.0729,79.69486,0.0013853,0.97114111,0.0000,06/16.7705/2016,2000,g 11.0,4.0
# From MPC102953
P/2015 TO19 (Lemmon-PANSTARRS),e,6.4995,321.6519,89.1247,4.555893,0.1013547,0.35817568,184.7449,03/02.0/2021,2000,g 14.0,4.0
# From MPC110080
P/2015 TP200 (LINEAR),e,8.7775,6.9992,82.6023,7.274747,0.0502316,0.53499504,79.7136,03/02.0/2021,2000,g 11.0,4.0
# From MPC101097
C/2015 TQ209 (LINEAR),e,11.3038,223.3687,282.1448,572.4880,0.0000720,0.99752633,0.0000,08/25.2644/2016,2000,g 10.5,4.0
# From MPC115881
C/2015 V1 (PANSTARRS),e,139.2241,197.1821,179.6199,2280,0.0000091,0.99812716,0.0000,12/16.8081/2017,2000,g  6.5,4.0
# From MPC112390
C/2015 V2 (Johnson),h,06/11.8440/2017,49.8522,69.9051,165.0015,1.001863,1.644611,2000,5.0,4.0
# From MPC104791
C/2015 V4 (PANSTARRS),e,60.7878,179.9373,306.9665,18.47066,0.0124160,0.70439580,20.4468,03/02.0/2021,2000,g  8.5,4.0
# From MPC115881
C/2015 VL62 (Lemmon-Yeung-PANSTARRS),h,08/27.8697/2017,165.8171,95.1079,128.8084,1.001244,2.718507,2000,8.0,4.0
# From MPC102098
C/2015 WZ (PANSTARRS),e,134.6332,40.1959,66.7579,147.3026,0.0005513,0.99062223,0.0000,04/13.7204/2016,2000,g 15.0,4.0
# From MPC109142
C/2015 W1 (Gibbs),e,87.3624,114.3163,48.1651,2615,0.0000074,0.99914199,0.0000,05/13.5938/2016,2000,g 13.0,4.0
# From MPC101098
P/2015 W2 (Catalina),e,11.6070,294.2500,117.4946,7.295580,0.0500166,0.63395252,98.9939,03/02.0/2021,2000,g 13.0,4.0
# From MPC101098
P/2015 X1 (PANSTARRS),e,12.1515,161.7678,218.9284,3.632113,0.1423853,0.41903378,281.0949,03/02.0/2021,2000,g 16.0,4.0
# From MPEC 2020-AA5
C/2015 XY1 (Lemmon),h,04/27.4879/2018,148.8543,281.6193,196.2168,1.002511,7.923534,2000,5.5,4.0
# From MPC 97498
P/2015 X3 (PANSTARRS),e,24.3876,77.3111,306.6568,5.009141,0.0879142,0.43894883,178.7065,03/02.0/2021,2000,g 15.0,4.0
# From MPC119995
C/2015 X5 (PANSTARRS),h,12/29.1830/2017,124.3082,122.3460,27.6430,1.001602,6.796705,2000,7.5,4.0
# From MPC115881
P/2015 X6 (PANSTARRS),e,4.5647,106.9471,329.8633,2.753420,0.2157225,0.17261397,29.3139,03/02.0/2021,2000,g 16.0,4.0
# From MPC109143
C/2015 X7 (ATLAS),e,57.5595,139.9319,348.3679,8435,0.0000013,0.99956367,0.0000,07/29.0903/2016,2000,g  9.0,4.0
# From MPC109143
C/2015 Y1 (LINEAR),e,71.1630,135.8186,24.6523,240.3270,0.0002645,0.98953012,0.0000,05/13.3413/2016,2000,g 12.0,4.0
# From MPC119995
C/2016 A1 (PANSTARRS),h,11/22.3766/2017,121.2052,128.2081,10.2237,1.001093,5.321991,2000,6.0,4.0
# From MPC100282
P/2016 A2 (Christensen),e,26.4057,291.6157,141.4765,4.751588,0.0951581,0.27061184,198.3561,03/02.0/2021,2000,g 11.5,4.0
# From MPC115881
P/2016 A3 (PANSTARRS),e,8.5100,187.2519,341.0156,7.889593,0.0444756,0.38697074,62.4011,03/02.0/2021,2000,g 10.0,4.0
# From MPC102098
P/2016 A7 (PANSTARRS),e,16.6176,221.4905,352.6222,5.032327,0.0873073,0.56504006,160.0318,03/02.0/2021,2000,g 16.0,4.0
# From MPC106345
C/2016 A8 (LINEAR),e,148.2430,111.3440,130.4392,34.33461,0.0048990,0.94494068,8.0631,03/02.0/2021,2000,g 12.0,4.0
# From MPC107048
C/2016 B1 (NEOWISE),e,50.4468,232.0141,8.6865,438.8453,0.0001072,0.99267006,0.0000,12/04.4888/2016,2000,g  9.5,4.0
# From MPC109143
P/2016 BA14 (PANSTARRS),e,18.8935,180.5279,351.8897,3.025257,0.1873098,0.66521883,339.8971,03/02.0/2021,2000,g 21.0,4.0
# From MPC110494
C/2016 C1 (PANSTARRS),h,02/18.0984/2016,56.2375,181.8222,328.7123,1.001655,8.463273,2000,5.5,4.0
# From MPC101098
C/2016 C2 (NEOWISE),e,38.0321,24.4285,214.5846,65.95427,0.0018401,0.97619721,0.0000,04/19.0697/2016,2000,g 16.0,4.0
# From MPC110494
C/2016 E1 (PANSTARRS),h,06/04.4149/2017,131.8855,233.0857,47.4796,1.006323,8.178852,2000,6.5,4.0
# From MPC102098
P/2016 G1 (PANSTARRS),e,10.9678,204.0386,111.2149,2.583604,0.2373368,0.21122227,355.2126,03/02.0/2021,2000,g 14.0,4.0
# From MPEC 2017-D91
P/2016 J1-A (PANSTARRS),e,14.3263,199.8132,46.9330,3.173574,0.1743336,0.22805416,298.0258,03/02.0/2021,2000,g 16.5,4.0
# From MPEC 2017-A77
P/2016 J1-B (PANSTARRS),e,14.3290,199.8180,46.8241,3.173203,0.1743641,0.22790496,298.1527,03/02.0/2021,2000,g 17.0,4.0
# From MPC101099
C/2016 J2 (Denneau),e,130.3265,186.4371,318.6590,648.2213,0.0000597,0.99765728,0.0000,04/12.5864/2016,2000,g 17.0,4.0
# From MPC104792
C/2016 K1 (LINEAR),h,07/13.5614/2016,90.9435,325.6128,18.3210,1.000202,2.295885,2000,13.0,4.0
# From MPC119995
C/2016 M1 (PANSTARRS),e,90.9848,92.2137,209.9063,8863,0.0000012,0.99975032,0.0000,08/10.4161/2018,2000,g  5.0,4.0
# From MPC115881
C/2016 N4 (MASTER),e,72.6241,353.9940,55.9402,2809,0.0000066,0.99886159,0.0000,09/16.6730/2017,2000,g  8.5,4.0
# From MPC119995
C/2016 N6 (PANSTARRS),e,105.8410,298.9882,162.7133,1408,0.0000187,0.99810677,0.0000,07/17.9931/2018,2000,g  7.0,4.0
# From MPC102099
P/2016 P1 (PANSTARRS),e,24.4563,319.5648,270.0886,3.193652,0.1726922,0.28914348,342.6898,03/02.0/2021,2000,g 15.0,4.0
# From MPC102099
C/2016 P4 (PANSTARRS),e,29.8803,320.7243,356.2379,414.4409,0.0001168,0.98576952,0.0000,10/18.6024/2016,2000,g 10.5,4.0
# From MPC118093
C/2016 Q2 (PANSTARRS),h,05/11.8220/2021,109.3883,322.2961,84.5239,1.000373,7.081869,2000,6.0,4.0
# From MPC102955
C/2016 Q4 (Kowalski),e,7.2559,271.2904,99.4456,16.93625,0.0141409,0.58157965,15.9670,03/02.0/2021,2000,g  7.0,4.0
# From MPC119995
C/2016 R2 (PANSTARRS),e,58.2368,80.5598,33.1543,511.4952,0.0000852,0.99491289,0.0000,05/09.0993/2018,2000,g  7.0,4.0
# From MPC102099
C/2016 R3 (Borisov),e,53.0326,78.7570,118.1767,198.1882,0.0003533,0.99771135,0.0000,10/10.0553/2016,2000,g 18.0,4.0
# From MPC109144
P/2016 R4 (Gibbs),e,10.8737,168.2695,174.0298,5.331529,0.0800620,0.47629352,134.8146,03/02.0/2021,2000,g 12.5,4.0
# From MPC105543
P/2016 S1 (PANSTARRS),e,94.6767,227.5521,273.2787,8.278407,0.0413794,0.70998197,59.8766,03/02.0/2021,2000,g 12.0,4.0
# From MPC105238
C/2016 T1 (Matheny),e,129.8504,56.3322,137.4748,125.0658,0.0007047,0.98156532,0.0000,02/01.3808/2017,2000,g 14.5,4.0
# From MPC107685
C/2016 T2 (Matheny),e,81.3976,339.1818,92.2076,99.23522,0.0009970,0.98081396,0.0000,12/29.3709/2016,2000,g 14.5,4.0
# From MPC110082
C/2016 T3 (PANSTARRS),e,22.6826,271.7272,194.6311,131.0138,0.0006572,0.97979408,0.0000,09/06.4187/2017,2000,g 10.5,4.0
# From MPC103847
C/2016 U1 (NEOWISE),h,01/13.8148/2017,46.3015,61.5552,162.8182,1.000406,0.323459,2000,17.0,4.0
# From MPC106345
C/2016 VZ18 (PANSTARRS),e,23.9788,98.9205,36.4057,162.7399,0.0004747,0.99438064,0.0000,03/05.3941/2017,2000,g 19.5,4.0
# From MPC106345
P/2016 WM48 (Lemmon),e,117.4551,59.9043,36.0843,8.165233,0.0422427,0.78383116,61.9836,03/02.0/2021,2000,g 15.0,4.0
# From MPC119995
C/2016 X1 (Lemmon),e,26.4530,256.4055,224.4959,1272,0.0000217,0.99405616,0.0000,04/28.4792/2019,2000,g  6.0,4.0
# From MPC108594
C/2017 A1 (PANSTARRS),e,49.7924,121.0442,2.0074,76.03213,0.0014866,0.96987883,2.0603,03/02.0/2021,2000,g 13.0,4.0
# From MPC108594
C/2017 A3 (Elenin),e,98.5280,97.8953,303.9919,43.43693,0.0034428,0.91147167,5.1336,03/02.0/2021,2000,g  9.5,4.0
# From MPC114598
C/2017 AB5 (PANSTARRS),e,32.4423,42.6371,78.3262,2320,0.0000088,0.99602929,0.0000,02/15.2980/2018,2000,g  5.5,4.0
# From MPC119995
C/2017 B3 (LINEAR),h,02/02.5630/2019,54.1683,2.1792,284.7971,1.001569,3.923307,2000,6.0,4.0
# From MPC103847
P/2017 B4 (PANSTARRS),e,20.0584,121.4578,11.0197,4.410520,0.1064068,0.36495152,359.9130,01/05.0/2017,2000,g 14.5,4.0
# From MPC104793
C/2017 C1 (NEOWISE),e,65.7617,357.5537,110.0594,20.57872,0.0105579,0.92717038,15.8741,03/02.0/2021,2000,g 18.0,4.0
# From MPC107685
C/2017 C2 (PANSTARRS),e,118.5856,249.7683,138.5807,96.06675,0.0010468,0.97478574,0.0000,01/21.4544/2017,2000,g 14.0,4.0
# From MPC104793
P/2017 D1 (Fuls),e,20.7557,82.1803,8.0385,4.829849,0.0928547,0.43625116,158.9840,03/02.0/2021,2000,g 14.0,4.0
# From MPC112391
C/2017 D2 (Barros),e,31.2578,330.9518,334.5397,5173,0.0000026,0.99951845,0.0000,07/14.9041/2017,2000,g 11.0,4.0
# From MPC114598
